[{"ORDINAL":"1","COMMENT":"GENERATED VIA SPACETRACK.ORG API","ORIGINATOR":"JSPOC","NORAD_CAT_ID":"23512","OBJECT_NAME":"COSMOS 2308 (GLONASS)","OBJECT_TYPE":"PAYLOAD","CLASSIFICATION_TYPE":"U","INTLDES":"95009B","EPOCH":"2016-06-23 04:30:29","EPOCH_MICROSECONDS":"433024","MEAN_MOTION":"2.13099586","ECCENTRICITY":"0.0006569","INCLINATION":"64.2392","RA_OF_ASC_NODE":"68.7417","ARG_OF_PERICENTER":"309.1551","MEAN_ANOMALY":"173.0977","EPHEMERIS_TYPE":"0","ELEMENT_SET_NO":"999","REV_AT_EPOCH":"16576","BSTAR":"0","MEAN_MOTION_DOT":"-1.6e-07","MEAN_MOTION_DDOT":"0","FILE":"2050545","TLE_LINE0":"0 COSMOS 2308 (GLONASS)","TLE_LINE1":"1 23512U 95009B   16175.18784066 -.00000016  00000-0  00000+0 0  9993","TLE_LINE2":"2 23512  64.2392  68.7417 0006569 309.1551 173.0977  2.13099586165766","OBJECT_ID":"1995-009B","OBJECT_NUMBER":"23512","SEMIMAJOR_AXIS":"25508.217","PERIOD":"675.740","APOGEE":"19146.838","PERIGEE":"19113.325"},{"ORDINAL":"1","COMMENT":"GENERATED VIA SPACETRACK.ORG API","ORIGINATOR":"JSPOC","NORAD_CAT_ID":"23513","OBJECT_NAME":"COSMOS 2309 (GLONASS)","OBJECT_TYPE":"PAYLOAD","CLASSIFICATION_TYPE":"U","INTLDES":"95009C","EPOCH":"2016-06-22 06:17:46","EPOCH_MICROSECONDS":"819680","MEAN_MOTION":"2.13052107","ECCENTRICITY":"0.0029135","INCLINATION":"64.2395","RA_OF_ASC_NODE":"68.9343","ARG_OF_PERICENTER":"216.6942","MEAN_ANOMALY":"317.551","EPHEMERIS_TYPE":"0","ELEMENT_SET_NO":"999","REV_AT_EPOCH":"16560","BSTAR":"0","MEAN_MOTION_DOT":"-1.7e-07","MEAN_MOTION_DDOT":"0","FILE":"2050785","TLE_LINE0":"0 COSMOS 2309 (GLONASS)","TLE_LINE1":"1 23513U 95009C   16174.26234745 -.00000017 +00000-0 +00000-0 0  9998","TLE_LINE2":"2 23513 064.2395 068.9343 0029135 216.6942 317.5510 02.13052107165609","OBJECT_ID":"1995-009C","OBJECT_NUMBER":"23513","SEMIMAJOR_AXIS":"25512.006","PERIOD":"675.890","APOGEE":"19208.200","PERIGEE":"19059.542"},{"ORDINAL":"1","COMMENT":"GENERATED VIA SPACETRACK.ORG API","ORIGINATOR":"JSPOC","NORAD_CAT_ID":"23522","OBJECT_NAME":"HIMAWARI 5 (GMS 5)","OBJECT_TYPE":"PAYLOAD","CLASSIFICATION_TYPE":"U","INTLDES":"95011B","EPOCH":"2016-06-23 09:54:37","EPOCH_MICROSECONDS":"647936","MEAN_MOTION":"0.99401967","ECCENTRICITY":"0.0006599","INCLINATION":"12.2467","RA_OF_ASC_NODE":"33.6241","ARG_OF_PERICENTER":"73.9778","MEAN_ANOMALY":"213.2952","EPHEMERIS_TYPE":"0","ELEMENT_SET_NO":"999","REV_AT_EPOCH":"7741","BSTAR":"0","MEAN_MOTION_DOT":"-2.8e-07","MEAN_MOTION_DDOT":"0","FILE":"2050661","TLE_LINE0":"0 HIMAWARI 5 (GMS 5)","TLE_LINE1":"1 23522U 95011B   16175.41293574 -.00000028  00000-0  00000+0 0  9995","TLE_LINE2":"2 23522  12.2467  33.6241 0006599  73.9778 213.2952  0.99401967 77415","OBJECT_ID":"1995-011B","OBJECT_NUMBER":"23522","SEMIMAJOR_AXIS":"42410.349","PERIOD":"1448.663","APOGEE":"36060.201","PERIGEE":"36004.228"},{"ORDINAL":"1","COMMENT":"GENERATED VIA SPACETRACK.ORG API","ORIGINATOR":"JSPOC","NORAD_CAT_ID":"23526","OBJECT_NAME":"COSMOS 2310","OBJECT_TYPE":"PAYLOAD","CLASSIFICATION_TYPE":"U","INTLDES":"95012A","EPOCH":"2016-06-23 09:15:37","EPOCH_MICROSECONDS":"257696","MEAN_MOTION":"13.71834068","ECCENTRICITY":"0.0021273","INCLINATION":"82.9458","RA_OF_ASC_NODE":"314.708","ARG_OF_PERICENTER":"336.8939","MEAN_ANOMALY":"79.5736","EPHEMERIS_TYPE":"0","ELEMENT_SET_NO":"999","REV_AT_EPOCH":"6426","BSTAR":"1.6208e-05","MEAN_MOTION_DOT":"3e-07","MEAN_MOTION_DDOT":"0","FILE":"2050666","TLE_LINE0":"0 COSMOS 2310","TLE_LINE1":"1 23526U 95012A   16175.38584789  .00000030  00000-0  16208-4 0  9991","TLE_LINE2":"2 23526  82.9458 314.7080 0021273 336.8939  79.5736 13.71834068 64261","OBJECT_ID":"1995-012A","OBJECT_NUMBER":"23526","SEMIMAJOR_AXIS":"7371.130","PERIOD":"104.968","APOGEE":"1008.676","PERIGEE":"977.315"},{"ORDINAL":"1","COMMENT":"GENERATED VIA SPACETRACK.ORG API","ORIGINATOR":"JSPOC","NORAD_CAT_ID":"23528","OBJECT_NAME":"INTELSAT 705","OBJECT_TYPE":"PAYLOAD","CLASSIFICATION_TYPE":"U","INTLDES":"95013A","EPOCH":"2016-06-23 03:22:39","EPOCH_MICROSECONDS":"167040","MEAN_MOTION":"0.98968546","ECCENTRICITY":"0.0017435","INCLINATION":"5.2771","RA_OF_ASC_NODE":"60.0289","ARG_OF_PERICENTER":"21.2209","MEAN_ANOMALY":"338.6923","EPHEMERIS_TYPE":"0","ELEMENT_SET_NO":"999","REV_AT_EPOCH":"7751","BSTAR":"0.0001","MEAN_MOTION_DOT":"0","MEAN_MOTION_DDOT":"0","FILE":"2050756","TLE_LINE0":"0 INTELSAT 705","TLE_LINE1":"1 23528U 95013A   16175.14073110  .00000000  00000-0  10000-3 0  9999","TLE_LINE2":"2 23528   5.2771  60.0289 0017435  21.2209 338.6923  0.98968546 77514","OBJECT_ID":"1995-013A","OBJECT_NUMBER":"23528","SEMIMAJOR_AXIS":"42534.080","PERIOD":"1455.007","APOGEE":"36230.103","PERIGEE":"36081.787"},{"ORDINAL":"1","COMMENT":"GENERATED VIA SPACETRACK.ORG API","ORIGINATOR":"JSPOC","NORAD_CAT_ID":"23536","OBJECT_NAME":"BRAZILSAT B2","OBJECT_TYPE":"PAYLOAD","CLASSIFICATION_TYPE":"U","INTLDES":"95016A","EPOCH":"2016-06-19 11:50:12","EPOCH_MICROSECONDS":"657984","MEAN_MOTION":"1.00269376","ECCENTRICITY":"0.0001759","INCLINATION":"6.6188","RA_OF_ASC_NODE":"53.8775","ARG_OF_PERICENTER":"42.0596","MEAN_ANOMALY":"286.4952","EPHEMERIS_TYPE":"0","ELEMENT_SET_NO":"999","REV_AT_EPOCH":"7779","BSTAR":"0","MEAN_MOTION_DOT":"-2.86e-06","MEAN_MOTION_DDOT":"0","FILE":"2049436","TLE_LINE0":"0 BRAZILSAT B2","TLE_LINE1":"1 23536U 95016A   16171.49320206 -.00000286 +00000-0 +00000-0 0  9999","TLE_LINE2":"2 23536 006.6188 053.8775 0001759 042.0596 286.4952 01.00269376077793","OBJECT_ID":"1995-016A","OBJECT_NUMBER":"23536","SEMIMAJOR_AXIS":"42165.407","PERIOD":"1436.131","APOGEE":"35794.689","PERIGEE":"35779.855"},{"ORDINAL":"1","COMMENT":"GENERATED VIA SPACETRACK.ORG API","ORIGINATOR":"JSPOC","NORAD_CAT_ID":"23537","OBJECT_NAME":"HOT BIRD 1","OBJECT_TYPE":"PAYLOAD","CLASSIFICATION_TYPE":"U","INTLDES":"95016B","EPOCH":"2016-06-21 15:31:40","EPOCH_MICROSECONDS":"172736","MEAN_MOTION":"0.99313876","ECCENTRICITY":"0.0003122","INCLINATION":"8.4727","RA_OF_ASC_NODE":"48.0545","ARG_OF_PERICENTER":"72.0644","MEAN_ANOMALY":"67.18","EPHEMERIS_TYPE":"0","ELEMENT_SET_NO":"999","REV_AT_EPOCH":"7748","BSTAR":"0","MEAN_MOTION_DOT":"7.9e-07","MEAN_MOTION_DDOT":"0","FILE":"2050282","TLE_LINE0":"0 HOT BIRD 1","TLE_LINE1":"1 23537U 95016B   16173.64699274 +.00000079 +00000-0 +00000-0 0  9992","TLE_LINE2":"2 23537 008.4727 048.0545 0003122 072.0644 067.1800 00.99313876077481","OBJECT_ID":"1995-016B","OBJECT_NUMBER":"23537","SEMIMAJOR_AXIS":"42435.424","PERIOD":"1449.948","APOGEE":"36070.538","PERIGEE":"36044.041"},{"ORDINAL":"1","COMMENT":"GENERATED VIA SPACETRACK.ORG API","ORIGINATOR":"JSPOC","NORAD_CAT_ID":"23545","OBJECT_NAME":"ORBCOMM FM 1","OBJECT_TYPE":"PAYLOAD","CLASSIFICATION_TYPE":"U","INTLDES":"95017A","EPOCH":"2016-06-22 21:32:25","EPOCH_MICROSECONDS":"259712","MEAN_MOTION":"14.70352985","ECCENTRICITY":"0.000434","INCLINATION":"69.9698","RA_OF_ASC_NODE":"128.6689","ARG_OF_PERICENTER":"153.5278","MEAN_ANOMALY":"206.6089","EPHEMERIS_TYPE":"0","ELEMENT_SET_NO":"999","REV_AT_EPOCH":"12935","BSTAR":"9.0665e-05","MEAN_MOTION_DOT":"4.76e-06","MEAN_MOTION_DDOT":"0","FILE":"2050401","TLE_LINE0":"0 ORBCOMM FM 1","TLE_LINE1":"1 23545U 95017A   16174.89751458  .00000476  00000-0  90665-4 0  9994","TLE_LINE2":"2 23545  69.9698 128.6689 0004340 153.5278 206.6089 14.70352985129355","OBJECT_ID":"1995-017A","OBJECT_NUMBER":"23545","SEMIMAJOR_AXIS":"7038.078","PERIOD":"97.935","APOGEE":"662.997","PERIGEE":"656.888"},{"ORDINAL":"1","COMMENT":"GENERATED VIA SPACETRACK.ORG API","ORIGINATOR":"JSPOC","NORAD_CAT_ID":"23546","OBJECT_NAME":"ORBCOMM FM 2","OBJECT_TYPE":"PAYLOAD","CLASSIFICATION_TYPE":"U","INTLDES":"95017B","EPOCH":"2016-06-23 05:13:56","EPOCH_MICROSECONDS":"992800","MEAN_MOTION":"14.6920771","ECCENTRICITY":"0.000529","INCLINATION":"69.9716","RA_OF_ASC_NODE":"135.6428","ARG_OF_PERICENTER":"124.7366","MEAN_ANOMALY":"235.4277","EPHEMERIS_TYPE":"0","ELEMENT_SET_NO":"999","REV_AT_EPOCH":"12928","BSTAR":"8.3011e-05","MEAN_MOTION_DOT":"4.18e-06","MEAN_MOTION_DDOT":"0","FILE":"2050565","TLE_LINE0":"0 ORBCOMM FM 2","TLE_LINE1":"1 23546U 95017B   16175.21802075  .00000418  00000-0  83011-4 0  9997","TLE_LINE2":"2 23546  69.9716 135.6428 0005290 124.7366 235.4277 14.69207710129283","OBJECT_ID":"1995-017B","OBJECT_NUMBER":"23546","SEMIMAJOR_AXIS":"7041.735","PERIOD":"98.012","APOGEE":"667.325","PERIGEE":"659.875"},{"ORDINAL":"1","COMMENT":"GENERATED VIA SPACETRACK.ORG API","ORIGINATOR":"JSPOC","NORAD_CAT_ID":"23547","OBJECT_NAME":"ORBVIEW 1 (MICROLAB)","OBJECT_TYPE":"PAYLOAD","CLASSIFICATION_TYPE":"U","INTLDES":"95017C","EPOCH":"2016-06-22 19:49:13","EPOCH_MICROSECONDS":"961856","MEAN_MOTION":"14.59315376","ECCENTRICITY":"0.0010906","INCLINATION":"69.9799","RA_OF_ASC_NODE":"266.7503","ARG_OF_PERICENTER":"200.119","MEAN_ANOMALY":"159.9521","EPHEMERIS_TYPE":"0","ELEMENT_SET_NO":"999","REV_AT_EPOCH":"12561","BSTAR":"4.5453e-05","MEAN_MOTION_DOT":"1.48e-06","MEAN_MOTION_DDOT":"0","FILE":"2050785","TLE_LINE0":"0 ORBVIEW 1 (MICROLAB)","TLE_LINE1":"1 23547U 95017C   16174.82585604 +.00000148 +00000-0 +45453-4 0  9998","TLE_LINE2":"2 23547 069.9799 266.7503 0010906 200.1190 159.9521 14.59315376125611","OBJECT_ID":"1995-017C","OBJECT_NUMBER":"23547","SEMIMAJOR_AXIS":"7073.522","PERIOD":"98.676","APOGEE":"703.101","PERIGEE":"687.673"}]